CARTOSAT-2F             
1 43111U 18004A   24268.56104806  .00011063  00000+0  52762-3 0  9990
2 43111  97.4202 326.3973 0000940 299.8738  60.2403 15.19254615371586
CARBONITE 2             
1 43115U 18004E   24268.17284004  .00047898  00000+0  88193-3 0  9992
2 43115  97.2576 339.2234 0005245 260.9496  99.1162 15.49015682373226
LKW-3                   
1 43146U 18006A   24268.61965717  .00016903  00000+0  71021-3 0  9999
2 43146  97.5857  43.9871 0004703 181.6224 178.4998 15.23497230372432
ASNARO-2                
1 43152U 18007A   24268.46412205  .00019249  00000+0  83532-3 0  9995
2 43152  97.4118 273.8110 0001913  99.4206 260.7247 15.22376264371459
QUANTUTONG 1            
1 43158U 18008D   24268.39813133  .00321737  00000+0  20308-2 0  9998
2 43158  97.2466 318.7314 0003686 139.2889 220.8653 15.75715345369914
JILIN-1 07              
1 43159U 18008E   24268.54954431  .00011728  00000+0  52840-3 0  9996
2 43159  97.2384 297.8027 0012515 136.7356 223.4866 15.21130056368661
JILIN-1 08              
1 43160U 18008F   24268.51099486  .00011644  00000+0  52944-3 0  9997
2 43160  97.2391 297.4637 0009079 146.6346 213.5464 15.20851618368649
LEMUR-2-URAMCHANSOL     
1 43183U 18014D   24268.45507204  .00045947  00000+0  19172-2 0  9992
2 43183  97.5726 173.4613 0011828  22.1475 338.0270 15.23454339363917
LEMUR-2-KADI            
1 43184U 18014E   24268.47518713  .00028302  00000+0  13857-2 0  9992
2 43184  97.5501 170.5991 0010070   6.8732 353.2638 15.18091263363801
S-NET D                 
1 43186U 18014G   24268.22839103  .00008698  00000+0  59362-3 0  9994
2 43186  97.5766 168.3759 0011534  39.1913 321.0148 15.06385146363407
S-NET B                 
1 43187U 18014H   24268.29763401  .00008584  00000+0  58590-3 0  9995
2 43187  97.5773 168.4011 0012187  34.5362 325.6655 15.06377273363416
S-NET A                 
1 43188U 18014J   24268.29587670  .00008746  00000+0  59677-3 0  9995
2 43188  97.5778 168.5202 0012054  35.0449 325.1569 15.06388165363411
S-NET C                 
1 43189U 18014K   24268.29969698  .00008519  00000+0  58128-3 0  9998
2 43189  97.5797 168.4917 0013558  27.7381 332.4566 15.06379163361962
GOMX-4B                 
1 43196U 18015E   24268.59335439  .00452601  87806-4  10015-2 0  9991
2 43196  97.5952  91.6243 0007769 276.0336  84.0055 15.97934426371174
PAZ                     
1 43215U 18020A   24268.55018462  .00005154  00000+0  24839-3 0  9992
2 43215  97.4471 274.0087 0001740  88.8678 271.2756 15.19161243365269
GOES 17                 
1 43226U 18022A   24268.50718442 -.00000105  00000+0  00000+0 0  9998
2 43226   0.0150   8.1032 0002635 212.5367 221.0760  1.00271405 24094
LKW-4                   
1 43236U 18025A   24268.38980544  .00021216  00000+0  82323-3 0  9999
2 43236  97.5694  41.4706 0005070  56.5182 303.6540 15.26119834362812
ZHUHAI-1 OHS-01         
1 43439U 18040A   24268.59613211  .00189106  00000+0  15591-2 0  9993
2 43439  97.1002 315.5684 0003831 100.4271 259.7423 15.69767576357035
ZHUHAI-1 OVS-02         
1 43440U 18040B   24268.58987512  .00026059  00000+0  83625-3 0  9993
2 43440  97.1081 310.7671 0006057  22.1329 338.0174 15.32276568356684
ZHUHAI-1 OHS-02         
1 43441U 18040C   24268.59061825  .00023254  00000+0  82117-3 0  9994
2 43441  97.1273 314.7470 0012963 343.0585  17.0221 15.29136984 18068
ZHUHAI-1 OHS-04         
1 43443U 18040E   24268.60528407  .00213657  00000+0  15292-2 0  9999
2 43443  97.1182 317.3156 0002381 207.2330 152.8810 15.73088776357063
GAOFEN-6                
1 43484U 18048A   24268.58246980  .00002096  00000+0  30675-3 0  9998
2 43484  97.8554 340.3369 0012220  61.8657 298.3786 14.76642064340337
LUOJIA-1 01             
1 43485U 18048B   24268.56405546  .00005406  00000+0  68130-3 0  9997
2 43485  97.8680 345.6230 0010423  35.0916 325.0982 14.82351427340600
PAKTES 1A               
1 43529U 18056A   24268.63441200  .00006158  00000+0  58486-3 0  9998
2 43529  98.0465  32.8972 0024056  44.2754 316.0384 14.93662701337592
PRSS 1                  
1 43530U 18056B   24268.54387660  .00002559  00000+0  34704-3 0  9997
2 43530  97.8561 340.8646 0001109  96.9204 263.2134 14.79745042335088
HAIYANG-1C              
1 43609U 18068A   24268.54162148  .00000449  00000+0  17635-3 0  9999
2 43609  98.5965 336.3823 0010190 160.7093 199.4479 14.34068252316694
SSTL S1-4               
1 43618U 18071A   24268.63178887  .00003536  00000+0  32553-3 0  9996
2 43618  97.5865 152.0277 0007067 104.1929 256.0077 14.95331706328665
HAIYANG-2B              
1 43655U 18081A   24268.51088113  .00000021  00000+0  63519-4 0  9990
2 43655  99.3391 275.5777 0001806 127.0926 233.0391 13.79306468297984
CZ-4B R/B               
1 43656U 18081B   24268.51716223  .00000493  00000+0  16605-3 0  9997
2 43656  99.4318 123.6308 0205163 281.6676  76.1547 14.31355868309068
CFOSAT                  
1 43662U 18083A   24267.92625737  .00012890  00000+0  66054-3 0  9996
2 43662  97.3755 279.7912 0000690 294.3617  65.7544 15.16703940326865
2018-083C               
1 43664U 18083C   24268.51821047  .00060424  00000+0  10102-2 0  9994
2 43664  97.3328 296.6396 0003469 242.8913 117.1985 15.51707090328278
2018-083D               
1 43665U 18083D   24268.56036870  .00067987  00000+0  10633-2 0  9992
2 43665  97.3310 297.8519 0003495 238.2486 121.8427 15.53537873328346
TEN-KOH                 
1 43677U 18084G   24268.42999424  .00005900  00000+0  51349-3 0  9991
2 43677  98.0751  65.0297 0013846  50.0569 310.1866 14.97267027321562
DIWATA-2B               
1 43678U 18084H   24268.55858922  .00003006  00000+0  27299-3 0  9995
2 43678  98.0845  69.5767 0009941  64.9404 295.2847 14.96050032321771
STARS-AO                
1 43679U 18084J   24268.40635177  .00012021  00000+0  86382-3 0  9990
2 43679  98.0688  76.4213 0003555 133.7235 226.4285 15.04430962322173
AUTCUBE 2               
1 43681U 18084K   24268.39266232  .00008525  00000+0  66493-3 0  9998
2 43681  98.0750  72.9295 0009939  12.6014 347.5456 15.01393722321958
METOP-C                 
1 43689U 18087A   24268.60077474  .00000323  00000+0  16766-3 0  9997
2 43689  98.7133 326.6664 0002350 135.5838 224.5528 14.21485109305246
ES'HAIL 2               
1 43700U 18090A   24268.53306529  .00000130  00000+0  00000+0 0  9999
2 43700   0.0171 164.4623 0001183  46.3499  10.7232  1.00273232 21355
TIANPING 1B             
1 43714U 18094E   24268.47914331  .00028269  00000+0  56684-3 0  9993
2 43714  97.3653 287.8964 0005155 266.7048  93.3612 15.46661687326035
MOHAMMED VI-B           
1 43717U 18095A   24268.56712795  .00002080  00000+0  30112-3 0  9998
2 43717  97.9461 338.9444 0001108 118.4662 241.6659 14.77161351315090
HYSIS                   
1 43719U 18096A   24268.59383458  .00003323  00000+0  45904-3 0  9990
2 43719  97.8556 330.2281 0001005  54.3150 305.8155 14.78777823314233
COSMOS 2530             
1 43751U 18097A   24268.59553905  .00000036  00000+0  18883-3 0  9997
2 43751  82.5097 253.6685 0019254 335.3435  24.6723 12.42888093263959
COSMOS 2531             
1 43752U 18097B   24268.54159518  .00000035  00000+0  18202-3 0  9999
2 43752  82.5142 254.5305 0016909 353.9354   6.1519 12.42895825263960
COSMOS 2532             
1 43753U 18097C   24268.56876042  .00000031  00000+0  14951-3 0  9993
2 43753  82.5087 253.5852 0018291 356.0681   4.0252 12.42895464263935
MINXSS-2                
1 43758U 18099A   24268.13065063  .00029520  00000+0  16806-2 0  9990
2 43758  97.5427 329.1399 0014390 341.2369  18.8329 15.12695452317725
SIRION PATHFINDER-2     
1 43759U 18099B   24268.38722634  .00008437  00000+0  60456-3 0  9997
2 43759  97.5170 321.7975 0009578 314.1354  45.9084 15.04583840317417
AISTECHSAT 2            
1 43768U 18099L   24268.12724835  .00013577  00000+0  96551-3 0  9990
2 43768  97.5252 319.5818 0004340 325.5017  34.5927 15.04771204316998
FOX-1CLIFF (AO-95)      
1 43770U 18099N   24268.57215504  .00015192  00000+0  97362-3 0  9996
2 43770  97.5346 324.4059 0013099  29.7657 330.4314 15.08549512317539
2018-099Q               
1 43772U 18099Q   24268.61048517  .00023089  00000+0  12659-2 0  9990
2 43772  97.5130 328.3581 0003895 279.4083  80.6709 15.14177403317743
RANGE-A                 
1 43773U 18099R   24268.56036111  .00009688  00000+0  70174-3 0  9998
2 43773  97.4904 318.6464 0012305   0.7549 359.3694 15.04114790317368
HIBER-2                 
1 43774U 18099S   24268.43426497  .00026254  00000+0  13453-2 0  9999
2 43774  97.5322 329.8705 0006966 329.9164  30.1667 15.16534878317787
MOVE-II                 
1 43780U 18099Y   24268.44415950  .00040771  00000+0  17281-2 0  9992
2 43780  97.5095 330.8871 0004342 359.6889   0.4344 15.23007922317995
VESTA-1                 
1 43781U 18099Z   24268.42874630  .00028824  00000+0  15420-2 0  9993
2 43781  97.5078 324.6073 0004382   9.2768 350.8544 15.15003184317687
SNUSAT-2                
1 43782U 18099AA  24268.38581437  .00010530  00000+0  69950-3 0  9992
2 43782  97.5021 322.8200 0012908 327.5078  32.5354 15.07316058317503
SNUGLITE                
1 43784U 18099AC  24268.58503542  .00014156  00000+0  90299-3 0  9995
2 43784  97.4838 322.3102 0003236 346.3930  13.7211 15.08802501317615
ITASAT                  
1 43786U 18099AE  24268.11225996  .00016438  00000+0  11133-2 0  9994
2 43786  97.4987 322.6588 0016507  19.6927 340.4934 15.06446313317451
KAZSCISAT-1             
1 43787U 18099AF  24268.44265381  .00039053  00000+0  17553-2 0  9993
2 43787  97.4958 327.6809 0004067 327.6444  32.4541 15.21016279317986
EAGLET-I                
1 43790U 18099AJ  24268.60083194  .00007395  00000+0  53177-3 0  9992
2 43790  97.5178 323.6095 0012863 359.3561   0.7647 15.04463861317218
ESEO                    
1 43792U 18099AL  24268.59862225  .00003788  00000+0  30516-3 0  9996
2 43792  97.5016 319.8025 0006718 337.8286  22.2646 15.00486212317105
